[{"OBJECT_NAME":"ONEWEB-0519","OBJECT_ID":"2022-138AA","EPOCH":"2026-03-09T18:36:08.004096","MEAN_MOTION":13.19725885,"ECCENTRICITY":0.00014682,"INCLINATION":87.9235,"RA_OF_ASC_NODE":324.7649,"ARG_OF_PERICENTER":79.5494,"MEAN_ANOMALY":280.5804,"EPHEMERIS_TYPE":0,"CLASSIFICATION_TYPE":"U","NORAD_CAT_ID":54137,"ELEMENT_SET_NO":999,"REV_AT_EPOCH":16372,"BSTAR":-0.00024916148,"MEAN_MOTION_DOT":-8.7e-7,"MEAN_MOTION_DDOT":0},{"OBJECT_NAME":"COSMOS 886 DEB","OBJECT_ID":"1976-126BB","EPOCH":"2026-03-09T11:56:28.762368","MEAN_MOTION":13.92875098,"ECCENTRICITY":0.05307589,"INCLINATION":65.7939,"RA_OF_ASC_NODE":106.2794,"ARG_OF_PERICENTER":113.8415,"MEAN_ANOMALY":251.9212,"EPHEMERIS_TYPE":0,"CLASSIFICATION_TYPE":"U","NORAD_CAT_ID":9961,"ELEMENT_SET_NO":999,"REV_AT_EPOCH":38673,"BSTAR":0.00065937265,"MEAN_MOTION_DOT":2.683e-5,"MEAN_MOTION_DDOT":0}]
